{
  "type": "FeatureCollection",
  "features": [
    {
      "type": "Feature",
      "properties": {
        "norad_id": 33844,
        "name": "COSMOS 2251 DEB",
        "group": "cosmos-2251-debris",
        "lat": 42.132404282471384,
        "lon": 42.22139511573093,
        "alt_km": 741.6408400732207,
        "timestamp": "2025-12-26T17:24:55.112465+00:00",
        "meta_object_name": "COSMOS 2251 DEB",
        "meta_object_id": "1993-036CM",
        "meta_epoch": "2025-12-26T02:17:01.879296",
        "meta_mean_motion": 14.33742098,
        "meta_eccentricity": 0.00472388,
        "meta_inclination": 74.0664,
        "meta_ra_of_asc_node": 28.3956,
        "meta_arg_of_pericenter": 46.0817,
        "meta_mean_anomaly": 345.3582,
        "meta_ephemeris_type": 0,
        "meta_classification_type": "U",
        "meta_norad_cat_id": 33844,
        "meta_element_set_no": 999,
        "meta_rev_at_epoch": 87917,
        "meta_bstar": 0.00034039752,
        "meta_mean_motion_dot": 9.32e-06,
        "meta_mean_motion_ddot": 0,
        "tle_line1": "1 33844U 93036CM  25360.09516064  .00000932  00000+0  34040-3 0  9997",
        "tle_line2": "2 33844  74.0664  28.3956 0047238  46.0817 345.3582 14.33742098879177"
      },
      "geometry": {
        "type": "Point",
        "coordinates": [
          42.22139511573093,
          42.132404282471384
        ]
      }
    },
    {
      "type": "Feature",
      "properties": {
        "norad_id": 33848,
        "name": "COSMOS 2251 DEB",
        "group": "cosmos-2251-debris",
        "lat": 24.561126829259813,
        "lon": -20.862346274139792,
        "alt_km": 713.8657568278313,
        "timestamp": "2025-12-26T17:24:55.112475+00:00",
        "meta_object_name": "COSMOS 2251 DEB",
        "meta_object_id": "1993-036CR",
        "meta_epoch": "2025-12-26T06:12:31.770720",
        "meta_mean_motion": 14.44157079,
        "meta_eccentricity": 0.00419965,
        "meta_inclination": 74.0325,
        "meta_ra_of_asc_node": 332.4873,
        "meta_arg_of_pericenter": 24.4789,
        "meta_mean_anomaly": 94.6119,
        "meta_ephemeris_type": 0,
        "meta_classification_type": "U",
        "meta_norad_cat_id": 33848,
        "meta_element_set_no": 999,
        "meta_rev_at_epoch": 88026,
        "meta_bstar": 0.0012519047,
        "meta_mean_motion_dot": 4.315e-05,
        "meta_mean_motion_ddot": 0,
        "tle_line1": "1 33848U 93036CR  25360.25870105  .00004315  00000+0  12519-2 0  9993",
        "tle_line2": "2 33848  74.0325 332.4873 0041996  24.4789  94.6119 14.44157079880268"
      },
      "geometry": {
        "type": "Point",
        "coordinates": [
          -20.862346274139792,
          24.561126829259813
        ]
      }
    },
    {
      "type": "Feature",
      "properties": {
        "norad_id": 33892,
        "name": "COSMOS 2251 DEB",
        "group": "cosmos-2251-debris",
        "lat": -13.761743754105543,
        "lon": 72.46127752221769,
        "alt_km": 856.82847322836,
        "timestamp": "2025-12-26T17:24:55.112486+00:00",
        "meta_object_name": "COSMOS 2251 DEB",
        "meta_object_id": "1993-036CV",
        "meta_epoch": "2025-12-26T05:49:04.605024",
        "meta_mean_motion": 14.2338096,
        "meta_eccentricity": 0.01120699,
        "meta_inclination": 73.8025,
        "meta_ra_of_asc_node": 77.4248,
        "meta_arg_of_pericenter": 105.99,
        "meta_mean_anomaly": 285.7513,
        "meta_ephemeris_type": 0,
        "meta_classification_type": "U",
        "meta_norad_cat_id": 33892,
        "meta_element_set_no": 999,
        "meta_rev_at_epoch": 87147,
        "meta_bstar": 0.00060351529,
        "meta_mean_motion_dot": 1.435e-05,
        "meta_mean_motion_ddot": 0,
        "tle_line1": "1 33892U 93036CV  25360.24241441  .00001435  00000+0  60352-3 0  9995",
        "tle_line2": "2 33892  73.8025  77.4248 0112069 105.9900 285.7513 14.23380960871471"
      },
      "geometry": {
        "type": "Point",
        "coordinates": [
          72.46127752221769,
          -13.761743754105543
        ]
      }
    },
    {
      "type": "Feature",
      "properties": {
        "norad_id": 33894,
        "name": "COSMOS 2251 DEB",
        "group": "cosmos-2251-debris",
        "lat": 20.88310888033136,
        "lon": 141.05518627078698,
        "alt_km": 1130.2027281222536,
        "timestamp": "2025-12-26T17:24:55.112496+00:00",
        "meta_object_name": "COSMOS 2251 DEB",
        "meta_object_id": "1993-036CX",
        "meta_epoch": "2025-12-26T00:12:01.577376",
        "meta_mean_motion": 13.21328961,
        "meta_eccentricity": 0.05785494,
        "meta_inclination": 73.7663,
        "meta_ra_of_asc_node": 328.5462,
        "meta_arg_of_pericenter": 246.2079,
        "meta_mean_anomaly": 107.7341,
        "meta_ephemeris_type": 0,
        "meta_classification_type": "U",
        "meta_norad_cat_id": 33894,
        "meta_element_set_no": 999,
        "meta_rev_at_epoch": 80883,
        "meta_bstar": 0.00057833962,
        "meta_mean_motion_dot": 5.51e-06,
        "meta_mean_motion_ddot": 0,
        "tle_line1": "1 33894U 93036CX  25360.00835159  .00000551  00000+0  57834-3 0  9995",
        "tle_line2": "2 33894  73.7663 328.5462 0578549 246.2079 107.7341 13.21328961808835"
      },
      "geometry": {
        "type": "Point",
        "coordinates": [
          141.05518627078698,
          20.88310888033136
        ]
      }
    },
    {
      "type": "Feature",
      "properties": {
        "norad_id": 33896,
        "name": "COSMOS 2251 DEB",
        "group": "cosmos-2251-debris",
        "lat": -17.370136408799024,
        "lon": -43.47906694535943,
        "alt_km": 858.3564223052181,
        "timestamp": "2025-12-26T17:24:55.112506+00:00",
        "meta_object_name": "COSMOS 2251 DEB",
        "meta_object_id": "1993-036CZ",
        "meta_epoch": "2025-12-26T01:48:27.628992",
        "meta_mean_motion": 14.19070068,
        "meta_eccentricity": 0.01272424,
        "meta_inclination": 73.7666,
        "meta_ra_of_asc_node": 132.4723,
        "meta_arg_of_pericenter": 306.0236,
        "meta_mean_anomaly": 172.4194,
        "meta_ephemeris_type": 0,
        "meta_classification_type": "U",
        "meta_norad_cat_id": 33896,
        "meta_element_set_no": 999,
        "meta_rev_at_epoch": 86929,
        "meta_bstar": 0.00065853625,
        "meta_mean_motion_dot": 1.464e-05,
        "meta_mean_motion_ddot": 0,
        "tle_line1": "1 33896U 93036CZ  25360.07531978  .00001464  00000+0  65854-3 0  9991",
        "tle_line2": "2 33896  73.7666 132.4723 0127242 306.0236 172.4194 14.19070068869294"
      },
      "geometry": {
        "type": "Point",
        "coordinates": [
          -43.47906694535943,
          -17.370136408799024
        ]
      }
    },
    {
      "type": "Feature",
      "properties": {
        "norad_id": 33899,
        "name": "COSMOS 2251 DEB",
        "group": "cosmos-2251-debris",
        "lat": -1.4964490752524129,
        "lon": -120.56036811416666,
        "alt_km": 674.2320693414194,
        "timestamp": "2025-12-26T17:24:55.112516+00:00",
        "meta_object_name": "COSMOS 2251 DEB",
        "meta_object_id": "1993-036DC",
        "meta_epoch": "2025-12-26T05:20:53.655072",
        "meta_mean_motion": 14.61299819,
        "meta_eccentricity": 0.00559246,
        "meta_inclination": 74.0532,
        "meta_ra_of_asc_node": 59.9717,
        "meta_arg_of_pericenter": 118.6354,
        "meta_mean_anomaly": 298.2749,
        "meta_ephemeris_type": 0,
        "meta_classification_type": "U",
        "meta_norad_cat_id": 33899,
        "meta_element_set_no": 999,
        "meta_rev_at_epoch": 89036,
        "meta_bstar": 0.00077649401,
        "meta_mean_motion_dot": 3.891e-05,
        "meta_mean_motion_ddot": 0,
        "tle_line1": "1 33899U 93036DC  25360.22284323  .00003891  00000+0  77649-3 0  9991",
        "tle_line2": "2 33899  74.0532  59.9717 0055924 118.6354 298.2749 14.61299819890363"
      },
      "geometry": {
        "type": "Point",
        "coordinates": [
          -120.56036811416666,
          -1.4964490752524129
        ]
      }
    },
    {
      "type": "Feature",
      "properties": {
        "norad_id": 33900,
        "name": "COSMOS 2251 DEB",
        "group": "cosmos-2251-debris",
        "lat": 65.48208901728037,
        "lon": 12.139336411230733,
        "alt_km": 670.4692506198626,
        "timestamp": "2025-12-26T17:24:55.112526+00:00",
        "meta_object_name": "COSMOS 2251 DEB",
        "meta_object_id": "1993-036DD",
        "meta_epoch": "2025-12-25T08:50:54.447072",
        "meta_mean_motion": 14.58390981,
        "meta_eccentricity": 0.0046325,
        "meta_inclination": 74.0196,
        "meta_ra_of_asc_node": 335.7997,
        "meta_arg_of_pericenter": 124.1586,
        "meta_mean_anomaly": 26.0739,
        "meta_ephemeris_type": 0,
        "meta_classification_type": "U",
        "meta_norad_cat_id": 33900,
        "meta_element_set_no": 999,
        "meta_rev_at_epoch": 89220,
        "meta_bstar": 0.00043405,
        "meta_mean_motion_dot": 2.012e-05,
        "meta_mean_motion_ddot": 0,
        "tle_line1": "1 33900U 93036DD  25359.36868573  .00002012  00000+0  43405-3 0  9999",
        "tle_line2": "2 33900  74.0196 335.7997 0046325 124.1586  26.0739 14.58390981892200"
      },
      "geometry": {
        "type": "Point",
        "coordinates": [
          12.139336411230733,
          65.48208901728037
        ]
      }
    }
  ]
}